[{"OBJECT_NAME":"STARLINK-34162","OBJECT_ID":"2025-101AA","EPOCH":"2026-03-08T19:57:30.859488","MEAN_MOTION":15.27596608,"ECCENTRICITY":0.00010486,"INCLINATION":43.0011,"RA_OF_ASC_NODE":2.8362,"ARG_OF_PERICENTER":235.4706,"MEAN_ANOMALY":124.6047,"EPHEMERIS_TYPE":0,"CLASSIFICATION_TYPE":"U","NORAD_CAT_ID":64018,"ELEMENT_SET_NO":999,"REV_AT_EPOCH":4692,"BSTAR":0.0014420741,"MEAN_MOTION_DOT":0.00039654,"MEAN_MOTION_DDOT":0},{"OBJECT_NAME":"TRANSPORTER-1 OBJECT Z","OBJECT_ID":"2021-006Z","EPOCH":"2026-03-09T22:55:57.522432","MEAN_MOTION":15.30965056,"ECCENTRICITY":0.00100878,"INCLINATION":97.2377,"RA_OF_ASC_NODE":113.4736,"ARG_OF_PERICENTER":179.6869,"MEAN_ANOMALY":180.438,"EPHEMERIS_TYPE":0,"CLASSIFICATION_TYPE":"U","NORAD_CAT_ID":47436,"ELEMENT_SET_NO":999,"REV_AT_EPOCH":28420,"BSTAR":0.00024088983,"MEAN_MOTION_DOT":7.143e-5,"MEAN_MOTION_DDOT":0}]
